{
  "norad_id": 46557,
  "name": "STARLINK-1679",
  "history": [
    {
      "epoch": "2026-03-28T22:00:01.999584Z",
      "apogee_km": 380.58790138993936,
      "perigee_km": 379.27278148529695,
      "latitude_deg": -51.58096650539508,
      "longitude_deg": 163.51830381759706,
      "height_km": 397.2326233417763,
      "semi_major_axis_km": 6758.067341437618,
      "eccentricity": 9.73e-05,
      "inclination_deg": 53.0457,
      "raan_deg": 30.4578,
      "arg_perigee_deg": 247.7845,
      "mean_anomaly_deg": 34.1903,
      "mean_motion_rev_day": 15.6267617
    },
    {
      "epoch": "2026-03-29T06:00:02.998944Z",
      "apogee_km": 380.35697009330306,
      "perigee_km": 379.1229817574995,
      "latitude_deg": -1.367622573989259,
      "longitude_deg": 111.13442078305849,
      "height_km": 380.9346586957432,
      "semi_major_axis_km": 6757.876975925401,
      "eccentricity": 9.13e-05,
      "inclination_deg": 53.0457,
      "raan_deg": 28.8291,
      "arg_perigee_deg": 258.393,
      "mean_anomaly_deg": 99.9971,
      "mean_motion_rev_day": 15.627422
    },
    {
      "epoch": "2026-03-30T01:57:33.817824Z",
      "apogee_km": 379.59423774277275,
      "perigee_km": 378.2130986301954,
      "latitude_deg": 2.3089484518440697e-06,
      "longitude_deg": 167.88929936565,
      "height_km": 380.0488794697169,
      "semi_major_axis_km": 6757.040668186484,
      "eccentricity": 0.0001022,
      "inclination_deg": 53.0459,
      "raan_deg": 24.7587,
      "arg_perigee_deg": 249.2988,
      "mean_anomaly_deg": 110.7916,
      "mean_motion_rev_day": 15.63032336
    },
    {
      "epoch": "2026-03-30T05:01:42.705120Z",
      "apogee_km": 379.50995381691337,
      "perigee_km": 378.0841055979645,
      "latitude_deg": 8.532110700128577e-06,
      "longitude_deg": 121.09992885847203,
      "height_km": 379.98541873650703,
      "semi_major_axis_km": 6756.934029707439,
      "eccentricity": 0.00010551,
      "inclination_deg": 53.046,
      "raan_deg": 24.1324,
      "arg_perigee_deg": 246.2387,
      "mean_anomaly_deg": 113.8516,
      "mean_motion_rev_day": 15.63069338
    }
  ]
}